GLOBAL-2                
1 43812U 18099BG  26068.69955396  .00003970  00000+0  26145-3 0  9998
2 43812  97.3697 109.3280 0007454 127.1924 232.9986 15.08046936396919
STARLINK-4086           
1 52833U 22062D   26068.30482356 -.00000794  00000+0 -31822-4 0  9997
2 52833  53.2180  35.8482 0001525  81.2695 278.8469 15.08842839205724
